HIMAWARI-8              
1 40267U 14060A   23219.85068524 -.00000284  00000+0  00000+0 0  9998
2 40267   0.0514 269.9217 0000528 293.5397 199.5006  1.00271575 32395
